IRIDIUM 921             
1 24873U 97034E   24261.20810567  .00170096  00000+0  31437-2 0  9993
2 24873  86.3737 242.2604 0003980 140.8622 219.2925 15.48445809489653
IRIDIUM 26              
1 24903U 97043A   24260.93041548  .00001566  00000+0  52653-3 0  9990
2 24903  86.3964 225.2464 0002225  86.7518 273.3934 14.36593103417500
IRIDIUM 22              
1 24907U 97043E   24260.98762828  .00001413  00000+0  48509-3 0  9996
2 24907  86.3961 228.5303 0002405  88.6648 271.4824 14.35466358417567
DUMMY MASS 1            
1 24925U 97048A   24260.95675713  .00001337  00000+0  14830-3 0  9999
2 24925  86.3290 261.5637 0008432  49.3030 310.8926 14.86423471464539
DUMMY MASS 2            
1 24926U 97048B   24260.94101501  .00001321  00000+0  14735-3 0  9995
2 24926  86.3288 263.1314 0009524  57.0981 303.1158 14.86179799464310
IRIDIUM 29              
1 24944U 97051A   24260.96172321  .00001400  00000+0  47651-3 0  9990
2 24944  86.3900 258.4061 0002540  89.1552 270.9936 14.35911075414054
IRIDIUM 33              
1 24946U 97051C   24260.93639243  .00000929  00000+0  32267-3 0  9992
2 24946  86.3815 257.6632 0005841 242.7299 117.3303 14.34509566413562
IRIDIUM 28              
1 24948U 97051E   24261.04396607  .00001334  00000+0  44514-3 0  9990
2 24948  86.3907 256.0406 0001889  92.7852 267.3562 14.36865531414680
